{
  "type": "FeatureCollection",
  "features": [
    {
      "type": "Feature",
      "properties": {
        "norad_id": 66471,
        "name": "STARLINK-35569",
        "group": "last-30-days",
        "lat": -13.814045406299892,
        "lon": -82.90553512352574,
        "alt_km": 418.8644399908353,
        "timestamp": "2025-12-10T21:43:20.861338+00:00",
        "meta_object_name": "STARLINK-35569",
        "meta_object_id": "2025-262R",
        "meta_epoch": "2025-12-10T13:07:39.603360",
        "meta_mean_motion": 15.49813767,
        "meta_eccentricity": 0.00010602,
        "meta_inclination": 43.0005,
        "meta_ra_of_asc_node": 83.8877,
        "meta_arg_of_pericenter": 274.4226,
        "meta_mean_anomaly": 85.6513,
        "meta_ephemeris_type": 0,
        "meta_classification_type": "U",
        "meta_norad_cat_id": 66471,
        "meta_element_set_no": 999,
        "meta_rev_at_epoch": 522,
        "meta_bstar": -0.0032454546,
        "meta_mean_motion_dot": -0.00181387,
        "meta_mean_motion_ddot": 0,
        "tle_line1": "1 66471U 25262R   25344.54698615 -.00181387  00000+0 -32455-2 0  9993",
        "tle_line2": "2 66471  43.0005  83.8877 0001060 274.4226  85.6513 15.49813767  5221"
      },
      "geometry": {
        "type": "Point",
        "coordinates": [
          -82.90553512352574,
          -13.814045406299892
        ]
      }
    },
    {
      "type": "Feature",
      "properties": {
        "norad_id": 66472,
        "name": "STARLINK-35567",
        "group": "last-30-days",
        "lat": -17.593416574215016,
        "lon": -78.32514602249454,
        "alt_km": 416.11421573621465,
        "timestamp": "2025-12-10T21:43:20.861350+00:00",
        "meta_object_name": "STARLINK-35567",
        "meta_object_id": "2025-262S",
        "meta_epoch": "2025-12-10T14:39:12.375360",
        "meta_mean_motion": 15.50607834,
        "meta_eccentricity": 0.00016295,
        "meta_inclination": 43.0004,
        "meta_ra_of_asc_node": 83.5044,
        "meta_arg_of_pericenter": 271.3384,
        "meta_mean_anomaly": 88.7289,
        "meta_ephemeris_type": 0,
        "meta_classification_type": "U",
        "meta_norad_cat_id": 66472,
        "meta_element_set_no": 999,
        "meta_rev_at_epoch": 523,
        "meta_bstar": 0.0014064855,
        "meta_mean_motion_dot": 0.00083137,
        "meta_mean_motion_ddot": 0,
        "tle_line1": "1 66472U 25262S   25344.61055990  .00083137  00000+0  14065-2 0  9994",
        "tle_line2": "2 66472  43.0004  83.5044 0001629 271.3384  88.7289 15.50607834  5239"
      },
      "geometry": {
        "type": "Point",
        "coordinates": [
          -78.32514602249454,
          -17.593416574215016
        ]
      }
    },
    {
      "type": "Feature",
      "properties": {
        "norad_id": 66473,
        "name": "STARLINK-35568",
        "group": "last-30-days",
        "lat": -18.808027745450236,
        "lon": -76.78671420910332,
        "alt_km": 415.95246628109544,
        "timestamp": "2025-12-10T21:43:20.861360+00:00",
        "meta_object_name": "STARLINK-35568",
        "meta_object_id": "2025-262T",
        "meta_epoch": "2025-12-10T14:38:42.996768",
        "meta_mean_motion": 15.50601263,
        "meta_eccentricity": 0.00017265,
        "meta_inclination": 43.0006,
        "meta_ra_of_asc_node": 83.5012,
        "meta_arg_of_pericenter": 261.997,
        "meta_mean_anomaly": 98.0695,
        "meta_ephemeris_type": 0,
        "meta_classification_type": "U",
        "meta_norad_cat_id": 66473,
        "meta_element_set_no": 999,
        "meta_rev_at_epoch": 523,
        "meta_bstar": 0.0020486481,
        "meta_mean_motion_dot": 0.00121828,
        "meta_mean_motion_ddot": 0,
        "tle_line1": "1 66473U 25262T   25344.61021987  .00121828  00000+0  20486-2 0  9998",
        "tle_line2": "2 66473  43.0006  83.5012 0001726 261.9970  98.0695 15.50601263  5236"
      },
      "geometry": {
        "type": "Point",
        "coordinates": [
          -76.78671420910332,
          -18.808027745450236
        ]
      }
    },
    {
      "type": "Feature",
      "properties": {
        "norad_id": 66474,
        "name": "STARLINK-35620",
        "group": "last-30-days",
        "lat": -19.923703302600103,
        "lon": -75.33947627490588,
        "alt_km": 416.77400755909275,
        "timestamp": "2025-12-10T21:43:20.861370+00:00",
        "meta_object_name": "STARLINK-35620",
        "meta_object_id": "2025-262U",
        "meta_epoch": "2025-12-10T14:38:15.116352",
        "meta_mean_motion": 15.50561865,
        "meta_eccentricity": 0.00012662,
        "meta_inclination": 43.0008,
        "meta_ra_of_asc_node": 83.4978,
        "meta_arg_of_pericenter": 294.4879,
        "meta_mean_anomaly": 65.5849,
        "meta_ephemeris_type": 0,
        "meta_classification_type": "U",
        "meta_norad_cat_id": 66474,
        "meta_element_set_no": 999,
        "meta_rev_at_epoch": 523,
        "meta_bstar": 0.0019651949,
        "meta_mean_motion_dot": 0.00116607,
        "meta_mean_motion_ddot": 0,
        "tle_line1": "1 66474U 25262U   25344.60989718  .00116607  00000+0  19652-2 0  9995",
        "tle_line2": "2 66474  43.0008  83.4978 0001266 294.4879  65.5849 15.50561865  5230"
      },
      "geometry": {
        "type": "Point",
        "coordinates": [
          -75.33947627490588,
          -19.923703302600103
        ]
      }
    },
    {
      "type": "Feature",
      "properties": {
        "norad_id": 66475,
        "name": "STARLINK-35538",
        "group": "last-30-days",
        "lat": -21.239607519136925,
        "lon": -73.58226291995288,
        "alt_km": 416.44079382373184,
        "timestamp": "2025-12-10T21:43:20.861380+00:00",
        "meta_object_name": "STARLINK-35538",
        "meta_object_id": "2025-262V",
        "meta_epoch": "2025-12-10T14:37:43.381632",
        "meta_mean_motion": 15.5062476,
        "meta_eccentricity": 0.00015774,
        "meta_inclination": 43.0005,
        "meta_ra_of_asc_node": 83.4963,
        "meta_arg_of_pericenter": 282.2977,
        "meta_mean_anomaly": 77.7707,
        "meta_ephemeris_type": 0,
        "meta_classification_type": "U",
        "meta_norad_cat_id": 66475,
        "meta_element_set_no": 999,
        "meta_rev_at_epoch": 523,
        "meta_bstar": 0.0018544896,
        "meta_mean_motion_dot": 0.00110176,
        "meta_mean_motion_ddot": 0,
        "tle_line1": "1 66475U 25262V   25344.60952988  .00110176  00000+0  18545-2 0  9990",
        "tle_line2": "2 66475  43.0005  83.4963 0001577 282.2977  77.7707 15.50624760  5233"
      },
      "geometry": {
        "type": "Point",
        "coordinates": [
          -73.58226291995288,
          -21.239607519136925
        ]
      }
    },
    {
      "type": "Feature",
      "properties": {
        "norad_id": 66476,
        "name": "STARLINK-35372",
        "group": "last-30-days",
        "lat": -22.385076546677777,
        "lon": -72.00775785828154,
        "alt_km": 416.41823634149114,
        "timestamp": "2025-12-10T21:43:20.861391+00:00",
        "meta_object_name": "STARLINK-35372",
        "meta_object_id": "2025-262W",
        "meta_epoch": "2025-12-10T14:37:13.984032",
        "meta_mean_motion": 15.50596461,
        "meta_eccentricity": 0.00014983,
        "meta_inclination": 43.0007,
        "meta_ra_of_asc_node": 83.4935,
        "meta_arg_of_pericenter": 265.6251,
        "meta_mean_anomaly": 94.4438,
        "meta_ephemeris_type": 0,
        "meta_classification_type": "U",
        "meta_norad_cat_id": 66476,
        "meta_element_set_no": 999,
        "meta_rev_at_epoch": 512,
        "meta_bstar": 0.0011346417,
        "meta_mean_motion_dot": 0.00066834,
        "meta_mean_motion_ddot": 0,
        "tle_line1": "1 66476U 25262W   25344.60918963  .00066834  00000+0  11346-2 0  9999",
        "tle_line2": "2 66476  43.0007  83.4935 0001498 265.6251  94.4438 15.50596461  5128"
      },
      "geometry": {
        "type": "Point",
        "coordinates": [
          -72.00775785828154,
          -22.385076546677777
        ]
      }
    },
    {
      "type": "Feature",
      "properties": {
        "norad_id": 66477,
        "name": "STARLINK-35354",
        "group": "last-30-days",
        "lat": -24.692229603548583,
        "lon": -68.68388550525326,
        "alt_km": 416.7110821711367,
        "timestamp": "2025-12-10T21:43:20.861401+00:00",
        "meta_object_name": "STARLINK-35354",
        "meta_object_id": "2025-262X",
        "meta_epoch": "2025-12-10T14:36:14.701536",
        "meta_mean_motion": 15.50594965,
        "meta_eccentricity": 0.00014318,
        "meta_inclination": 43.0004,
        "meta_ra_of_asc_node": 83.4869,
        "meta_arg_of_pericenter": 274.8883,
        "meta_mean_anomaly": 85.1814,
        "meta_ephemeris_type": 0,
        "meta_classification_type": "U",
        "meta_norad_cat_id": 66477,
        "meta_element_set_no": 999,
        "meta_rev_at_epoch": 523,
        "meta_bstar": 0.0010826471,
        "meta_mean_motion_dot": 0.00063727,
        "meta_mean_motion_ddot": 0,
        "tle_line1": "1 66477U 25262X   25344.60850349  .00063727  00000+0  10826-2 0  9993",
        "tle_line2": "2 66477  43.0004  83.4869 0001431 274.8883  85.1814 15.50594965  5236"
      },
      "geometry": {
        "type": "Point",
        "coordinates": [
          -68.68388550525326,
          -24.692229603548583
        ]
      }
    }
  ]
}